*******************************************************************************
JPL/HORIZONS               3526 Jeffbell (1984 CN)         2023-Sep-04 11:24:05
Rec #:    3526 (+COV) Soln.date: 2023-Aug-23_11:11:42   # obs: 4122 (1949-2023)
 
IAU76/J2000 helio. ecliptic osc. elements (au, days, deg., period=Julian yrs):
 
  EPOCH=  2457565.5 ! 2016-Jun-26.00 (TDB)         Residual RMS= .26096
   EC= .09435715367928134  QR= 2.52698058941478    TP= 2458316.1524050119
   OM= 42.47185158307543   W=  244.3871956346408   IN= 8.490402696384384
   A= 2.790261745765384    MA= 201.2639618109776   ADIST= 3.053542902115988
   PER= 4.66096            N= .211464104           ANGMOM= .028606316
   DAN= 2.88302            DDN= 2.65704            L= 286.6120763
   B= -7.6508286           MOID= 1.52477002        TP= 2018-Jul-16.6524050119
 
Asteroid physical parameters (km, seconds, rotational period in hours):
   GM= n.a.                RAD= 11.0275            ROTPER= n.a.
   H= 12.5                 G= .150                 B-V= n.a.
                           ALBEDO= .044            STYP= Ch

ASTEROID comments: 
1: soln ref.= JPL#52, OCC=0
2: source=ORB
*******************************************************************************


*******************************************************************************
Ephemeris / API_USER Mon Sep  4 11:24:05 2023 Pasadena, USA      / Horizons
*******************************************************************************
Target body name: 3526 Jeffbell (1984 CN)         {source: JPL#52}
Center body name: Solar System Barycenter (0)     {source: DE441}
Center-site name: BODY CENTER
*******************************************************************************
Start time      : A.D. 2023-Aug-12 00:00:00.0000 TDB
Stop  time      : A.D. 2023-Aug-13 00:00:00.0000 TDB
Step-size       : 2880 minutes
*******************************************************************************
Center geodetic : 0.0, 0.0, 0.0                   {E-lon(deg),Lat(deg),Alt(km)}
Center cylindric: 0.0, 0.0, 0.0                   {E-lon(deg),Dxy(km),Dz(km)}
Center radii    : (undefined)
Small perturbers: Yes                             {source: SB441-N16}
Output units    : KM-S
Calendar mode   : Mixed Julian/Gregorian
Output type     : GEOMETRIC cartesian states
Output format   : 2 (position and velocity)
Reference frame : Ecliptic of J2000.0
*******************************************************************************
Initial IAU76/J2000 heliocentric ecliptic osculating elements (au, days, deg.):
  EPOCH=  2457565.5 ! 2016-Jun-26.00 (TDB)         Residual RMS= .26096        
   EC= .09435715367928134  QR= 2.52698058941478    TP= 2458316.1524050119      
   OM= 42.47185158307543   W=  244.3871956346408   IN= 8.490402696384384       
  Equivalent ICRF heliocentric cartesian coordinates (au, au/d):
   X=-1.702836427028423E+00  Y= 2.095804976970831E+00  Z= 1.392991109178116E+00
  VX=-7.573952719532278E-03 VY=-5.194516243483415E-03 VZ=-2.091826495126895E-03
Asteroid physical parameters (km, seconds, rotational period in hours):        
   GM= n.a.                RAD= 11.0275            ROTPER= n.a.                
   H= 12.5                 G= .150                 B-V= n.a.                   
                           ALBEDO= .044            STYP= Ch                    
*******************************************************************************
JDTDB
   X     Y     Z
   VX    VY    VZ
*******************************************************************************
$$SOE
2460168.500000000 = A.D. 2023-Aug-12 00:00:00.0000 TDB 
 X = 3.081016314184115E+08 Y =-2.234965605573549E+08 Z =-5.572698741460736E+07
 VX= 1.210783419227779E+01 VY= 1.494816187120936E+01 VZ= 4.300843848936537E-01
$$EOE
*******************************************************************************
 
TIME

  Barycentric Dynamical Time ("TDB" or T_eph) output was requested. This
continuous coordinate time is equivalent to the relativistic proper time
of a clock at rest in a reference frame co-moving with the solar system
barycenter but outside the system's gravity well. It is the independent
variable in the solar system relativistic equations of motion.

  TDB runs at a uniform rate of one SI second per second and is independent
of irregularities in Earth's rotation.
 
CALENDAR SYSTEM

  Mixed calendar mode was active such that calendar dates after AD 1582-Oct-15
(if any) are in the modern Gregorian system. Dates prior to 1582-Oct-5 (if any)
are in the Julian calendar system, which is automatically extended for dates
prior to its adoption on 45-Jan-1 BC.  The Julian calendar is useful for
matching historical dates. The Gregorian calendar more accurately corresponds
to the Earth's orbital motion and seasons. A "Gregorian-only" calendar mode is
available if such physical events are the primary interest.

REFERENCE FRAME AND COORDINATES

  Ecliptic at the standard reference epoch

    Reference epoch: J2000.0
    X-Y plane: adopted Earth orbital plane at the reference epoch
               Note: IAU76 obliquity of 84381.448 arcseconds wrt ICRF X-Y plane
    X-axis   : ICRF
    Z-axis   : perpendicular to the X-Y plane in the directional (+ or -) sense
               of Earth's north pole at the reference epoch.

  Symbol meaning:

    JDTDB    Julian Day Number, Barycentric Dynamical Time
      X      X-component of position vector (km)
      Y      Y-component of position vector (km)
      Z      Z-component of position vector (km)
      VX     X-component of velocity vector (km/sec)                           
      VY     Y-component of velocity vector (km/sec)                           
      VZ     Z-component of velocity vector (km/sec)                           

ABERRATIONS AND CORRECTIONS

 Geometric state vectors have NO corrections or aberrations applied.

Computations by ...

    Solar System Dynamics Group, Horizons On-Line Ephemeris System
    4800 Oak Grove Drive, Jet Propulsion Laboratory
    Pasadena, CA  91109   USA

    General site: https://ssd.jpl.nasa.gov/
    Mailing list: https://ssd.jpl.nasa.gov/email_list.html
    System news : https://ssd.jpl.nasa.gov/horizons/news.html
    User Guide  : https://ssd.jpl.nasa.gov/horizons/manual.html
    Connect     : browser        https://ssd.jpl.nasa.gov/horizons/app.html#/x
                  API            https://ssd-api.jpl.nasa.gov/doc/horizons.html
                  command-line   telnet ssd.jpl.nasa.gov 6775
                  e-mail/batch   https://ssd.jpl.nasa.gov/ftp/ssd/hrzn_batch.txt
                  scripts        https://ssd.jpl.nasa.gov/ftp/ssd/SCRIPTS
    Author      : Jon.D.Giorgini@jpl.nasa.gov
*******************************************************************************
